[{"OBJECT_NAME":"LEO 3","OBJECT_ID":"2023-100G","EPOCH":"2026-03-09T21:30:59.468832","MEAN_MOTION":13.68417596,"ECCENTRICITY":0.00174207,"INCLINATION":99.5469,"RA_OF_ASC_NODE":194.2149,"ARG_OF_PERICENTER":270.7947,"MEAN_ANOMALY":89.1202,"EPHEMERIS_TYPE":0,"CLASSIFICATION_TYPE":"U","NORAD_CAT_ID":57392,"ELEMENT_SET_NO":999,"REV_AT_EPOCH":13206,"BSTAR":5.3471744e-5,"MEAN_MOTION_DOT":1.0e-8,"MEAN_MOTION_DDOT":0},{"OBJECT_NAME":"SL-16 DEB","OBJECT_ID":"1993-016Y","EPOCH":"2026-03-09T17:52:33.328416","MEAN_MOTION":13.89578474,"ECCENTRICITY":0.01286585,"INCLINATION":70.9988,"RA_OF_ASC_NODE":304.8034,"ARG_OF_PERICENTER":299.2405,"MEAN_ANOMALY":141.8451,"EPHEMERIS_TYPE":0,"CLASSIFICATION_TYPE":"U","NORAD_CAT_ID":22614,"ELEMENT_SET_NO":999,"REV_AT_EPOCH":66654,"BSTAR":0.00040546399,"MEAN_MOTION_DOT":4.85e-6,"MEAN_MOTION_DDOT":0}]
